H1 CPF 01  gfz 2022 04 23 12  6132 terrasarx 
H2 0702601  6201 31698    2022 04 23 12 59 42 2022 04 28 00 00 42   120 1 1  0 0 0
H9
10 0 59695  52542.000000  0    1097965.089    -47055.661   6789715.189
10 0 59695  52662.000000  0     525135.428   -766998.331   6814910.208
10 0 59695  52782.000000  0     -69246.214  -1463347.161   6720379.118
10 0 59695  52902.000000  0    -674290.031  -2123669.943   6507772.417
10 0 59695  53022.000000  0   -1278707.671  -2736351.489   6180802.191
10 0 59695  53142.000000  0   -1871020.426  -3290797.962   5745180.183
10 0 59695  53262.000000  0   -2439775.622  -3777622.213   5208525.462
10 0 59695  53382.000000  0   -2973770.202  -4188807.842   4580239.061
10 0 59695  53502.000000  0   -3462275.556  -4517847.132   3871344.196
10 0 59695  53622.000000  0   -3895256.319  -4759849.324   3094295.188
10 0 59695  53742.000000  0   -4263578.733  -4911617.751   2262759.497
10 0 59695  53862.000000  0   -4559205.863  -4971694.192   1391375.603
10 0 59695  53982.000000  0   -4775373.830  -4940367.510    495490.054
10 0 59695  54102.000000  0   -4906744.204  -4819646.741   -409119.919
10 0 59695  54222.000000  0   -4949528.929  -4613199.279  -1306533.133
10 0 59695  54342.000000  0   -4901583.515  -4326254.993  -2180974.526
10 0 59695  54462.000000  0   -4762465.745  -3965478.358  -3017100.528
10 0 59695  54582.000000  0   -4533459.502  -3538813.567  -3800272.487
10 0 59695  54702.000000  0   -4217564.420  -3055307.711  -4516813.738
10 0 59695  54822.000000  0   -3819451.840  -2524915.787  -5154245.990
10 0 59695  54942.000000  0   -3345388.469  -1958292.695  -5701500.287
10 0 59695  55062.000000  0   -2803130.825  -1366577.454  -6149100.091
10 0 59695  55182.000000  0   -2201792.738   -761173.785  -6489314.925
10 0 59695  55302.000000  0   -1551687.871   -153531.806  -6716282.319
10 0 59695  55422.000000  0    -864152.161    445064.551  -6826096.861
10 0 59695  55542.000000  0    -151349.634   1023701.399  -6816869.917
10 0 59695  55662.000000  0     573937.700   1572028.801  -6688758.286
10 0 59695  55782.000000  0    1298532.561   2080440.778  -6443963.793
10 0 59695  55902.000000  0    2009097.430   2540241.321  -6086700.133
10 0 59695  56022.000000  0    2692375.600   2943792.387  -5623128.001
10 0 59695  56142.000000  0    3335435.415   3284641.139  -5061258.008
10 0 59695  56262.000000  0    3925914.094   3557626.038  -4410824.659
10 0 59695  56382.000000  0    4452258.444   3758959.479  -3683128.668
10 0 59695  56502.000000  0    4903956.431   3886283.906  -2890849.053
10 0 59695  56622.000000  0    5271752.875   3938699.951  -2047827.368
10 0 59695  56742.000000  0    5547845.630   3916766.354  -1168828.077
10 0 59695  56862.000000  0    5726056.588   3822469.724   -269277.964
10 0 59695  56982.000000  0    5801972.813   3659165.447    635008.990
10 0 59695  57102.000000  0    5773054.333   3431490.114   1528117.009
10 0 59695  57222.000000  0    5638703.818   3145247.159   2394317.481
10 0 59695  57342.000000  0    5400297.124   2807269.885   3218354.616
10 0 59695  57462.000000  0    5061173.466   2425264.231   3985722.405
10 0 59695  57582.000000  0    4626584.354   2007635.055   4682924.966
10 0 59695  57702.000000  0    4103606.734   1563302.197   5297713.870
10 0 59695  57822.000000  0    3501021.106   1101510.483   5819304.749
10 0 59695  57942.000000  0    2829153.754    631636.335   6238562.443
10 0 59695  58062.000000  0    2099693.061    162997.810   6548153.043
10 0 59695  58182.000000  0    1325483.109   -295328.399   6742666.403
10 0 59695  58302.000000  0     520294.909   -734682.017   6818706.979
10 0 59695  58422.000000  0    -301420.436  -1146982.340   6774948.689
10 0 59695  58542.000000  0   -1124790.808  -1524876.298   6612155.919
10 0 59695  58662.000000  0   -1934791.245  -1861869.703   6333169.718
10 0 59695  58782.000000  0   -2716515.742  -2152438.104   5942860.846
10 0 59695  58902.000000  0   -3455451.413  -2392118.152   5448053.031
10 0 59695  59022.000000  0   -4137753.156  -2577578.563   4857410.421
10 0 59695  59142.000000  0   -4750508.255  -2706666.990   4181290.101
10 0 59695  59262.000000  0   -5281987.017  -2778431.737   3431563.938
10 0 59695  59382.000000  0   -5721874.408  -2793118.337   2621412.803
10 0 59695  59502.000000  0   -6061478.818  -2752141.881   1765095.247
10 0 59695  59622.000000  0   -6293912.110  -2658035.475    877692.290
10 0 59695  59742.000000  0   -6414233.683  -2514373.205    -25165.723
10 0 59695  59862.000000  0   -6419556.988  -2325671.666   -927582.232
10 0 59695  59982.000000  0   -6309114.424  -2097271.732  -1813684.604
10 0 59695  60102.000000  0   -6084277.640  -1835204.179  -2667911.630
10 0 59695  60222.000000  0   -5748535.573  -1546042.865  -3475292.313
10 0 59695  60342.000000  0   -5307430.860  -1236749.292  -4221710.924
10 0 59695  60462.000000  0   -4768457.019   -914512.647  -4894152.908
10 0 59695  60582.000000  0   -4140919.253   -586588.722  -5480927.678
10 0 59695  60702.000000  0   -3435762.201   -260142.110  -5971863.770
10 0 59695  60822.000000  0   -2665370.437     57905.115  -6358474.057
10 0 59695  60942.000000  0   -1843346.428    361014.715  -6634090.504
10 0 59695  61062.000000  0    -984269.075    643160.821  -6793968.122
10 0 59695  61182.000000  0    -103438.242    898945.285  -6835357.321
10 0 59695  61302.000000  0     783391.094   1123697.585  -6757545.015
10 0 59695  61422.000000  0    1660283.050   1313557.076  -6561867.992
10 0 59695  61542.000000  0    2511401.929   1465538.802  -6251693.288
10 0 59695  61662.000000  0    3321293.478   1577580.150  -5832365.985
10 0 59695  61782.000000  0    4075161.840   1648567.528  -5311125.248
10 0 59695  61902.000000  0    4759139.649   1678343.629  -4696991.408
10 0 59695  62022.000000  0    5360547.999   1667694.941  -4000621.045
10 0 59695  62142.000000  0    5868138.502   1618318.723  -3234131.265
10 0 59695  62262.000000  0    6272313.304   1532770.104  -2410896.825
10 0 59695  62382.000000  0    6565319.112   1414390.665  -1545320.976
10 0 59695  62502.000000  0    6741407.772   1267219.214   -652582.756
10 0 59695  62622.000000  0    6796958.970   1095886.188    251633.452
10 0 59695  62742.000000  0    6730560.012    905495.472   1151420.021
10 0 59695  62862.000000  0    6543044.199    701495.983   2030933.139
10 0 59695  62982.000000  0    6237483.033    489545.146   2874682.111
10 0 59695  63102.000000  0    5819132.013    275369.119   3667809.870
10 0 59695  63222.000000  0    5295333.067     64622.827   4396361.081
10 0 59695  63342.000000  0    4675376.623   -137244.908   5047529.667
10 0 59695  63462.000000  0    3970327.194   -325120.876   5609885.462
10 0 59695  63582.000000  0    3192814.772   -494346.587   6073571.343
10 0 59695  63702.000000  0    2356800.763   -640823.805   6430470.697
10 0 59695  63822.000000  0    1477322.081   -761106.227   6674343.706
10 0 59695  63942.000000  0     570216.743   -852475.104   6800931.769
10 0 59695  64062.000000  0    -348163.748   -912997.099   6808026.357
10 0 59695  64182.000000  0   -1261248.601   -941563.861   6695503.988
10 0 59695  64302.000000  0   -2152545.334   -937912.355   6465327.667
10 0 59695  64422.000000  0   -3005935.797   -902625.356   6121514.582
10 0 59695  64542.000000  0   -3805967.747   -837112.417   5670072.104
10 0 59695  64662.000000  0   -4538138.705   -743572.360   5118899.804
10 0 59695  64782.000000  0   -5189165.551   -624937.420   4477657.117
10 0 59695  64902.000000  0   -5747233.552   -484799.645   3757598.162
10 0 59695  65022.000000  0   -6202219.366   -327321.210   2971376.675
10 0 59695  65142.000000  0   -6545884.501   -157130.434   2132825.267
10 0 59695  65262.000000  0   -6772035.292     20794.640   1256709.632
10 0 59695  65382.000000  0   -6876642.517    201251.195    358462.341
10 0 59695  65502.000000  0   -6857917.787    378942.602   -546097.263
10 0 59695  65622.000000  0   -6716344.224    548612.411  -1441051.075
10 0 59695  65742.000000  0   -6454660.621    705177.091  -2310670.271
10 0 59695  65862.000000  0   -6077803.202    843854.553  -3139698.013
10 0 59695  65982.000000  0   -5592802.360    960285.671  -3913623.932
10 0 59695  66102.000000  0   -5008637.576   1050645.003  -4618938.556
10 0 59695  66222.000000  0   -4336058.175   1111738.318  -5243365.697
10 0 59695  66342.000000  0   -3587373.733   1141084.850  -5776068.693
10 0 59695  66462.000000  0   -2776220.151   1136982.506  -6207828.549
10 0 59695  66582.000000  0   -1917306.307   1098554.807  -6531191.945
10 0 59695  66702.000000  0   -1026145.701   1025780.701  -6740588.788
10 0 59695  66822.000000  0    -118778.577    919504.975  -6832416.857
10 0 59695  66942.000000  0     788509.654    781430.165  -6805096.308
10 0 59695  67062.000000  0    1679473.126    614089.823  -6659096.420
10 0 59695  67182.000000  0    2538191.060    420803.160  -6396928.662
10 0 59695  67302.000000  0    3349346.724    205612.400  -6023108.044
10 0 59695  67422.000000  0    4098497.496    -26797.111  -5544082.600
10 0 59695  67542.000000  0    4772330.825   -271192.873  -4968132.782
10 0 59695  67662.000000  0    5358905.513   -521905.201  -4305240.726
10 0 59695  67782.000000  0    5847871.282   -772950.185  -3566927.111
10 0 59695  67902.000000  0    6230661.533  -1018162.962  -2766059.449
10 0 59695  68022.000000  0    6500655.671  -1251339.023  -1916633.467
10 0 59695  68142.000000  0    6653306.393  -1466379.683  -1033529.970
10 0 59695  68262.000000  0    6686227.149  -1657438.260   -132251.977
10 0 59695  68382.000000  0    6599238.018  -1819063.574    771352.468
10 0 59695  68502.000000  0    6394367.100  -1946336.895   1661377.314
10 0 59695  68622.000000  0    6075806.987  -2034998.824   2522147.213
10 0 59695  68742.000000  0    5649827.725  -2081562.375   3338502.939
10 0 59695  68862.000000  0    5124647.285  -2083409.160   4096075.380
10 0 59695  68982.000000  0    4510264.697  -2038866.921   4781541.949
99
